{
  "norad_id": 48797,
  "name": "ONEWEB-0236",
  "history": [
    {
      "epoch": "2026-03-28T18:47:51.434016Z",
      "apogee_km": 1202.9930364724705,
      "perigee_km": 1200.5413922533771,
      "latitude_deg": 4.480449096630547e-05,
      "longitude_deg": 167.09536651507304,
      "height_km": 1204.6405765245927,
      "semi_major_axis_km": 7579.904214362924,
      "eccentricity": 0.00016172,
      "inclination_deg": 87.8922,
      "raan_deg": 275.2584,
      "arg_perigee_deg": 89.1007,
      "mean_anomaly_deg": 271.0309,
      "mean_motion_rev_day": 13.15549475
    }
  ]
}